H1 CPF  1  DLR 2021 01 04 10  5042 technosat            
H2  1704205 6203    42829 2021 01 04 00 00 00 2021 01 11 00 00 00    60 1 1  0 0 0
H9
10 0 59224   7200.000000  0      -1129768.825        558297.125      -6858168.837
10 0 59224   7260.000000  0      -1254560.532        992245.028      -6786630.780
10 0 59224   7320.000000  0      -1370310.236       1423087.005      -6686442.576
10 0 59224   7380.000000  0      -1476566.260       1848934.219      -6558017.097
10 0 59224   7440.000000  0      -1572932.588       2267913.399      -6401885.722
10 0 59224   7500.000000  0      -1659070.407       2678175.097      -6218696.483
10 0 59224   7560.000000  0      -1734699.353       3077901.932      -6009211.613
10 0 59224   7620.000000  0      -1799598.402       3465316.649      -5774304.639
10 0 59224   7680.000000  0      -1853606.486       3838690.117      -5514957.102
10 0 59224   7740.000000  0      -1896622.835       4196349.246      -5232254.792
10 0 59224   7800.000000  0      -1928607.008       4536684.726      -4927383.468
10 0 59224   7860.000000  0      -1949578.601       4858158.548      -4601624.112
10 0 59224   7920.000000  0      -1959616.639       5159311.241      -4256347.722
10 0 59224   7980.000000  0      -1958858.642       5438768.791      -3893009.697
10 0 59224   8040.000000  0      -1947499.385       5695249.221      -3513143.830
10 0 59224   8100.000000  0      -1925789.324       5927568.815      -3118355.945
10 0 59224   8160.000000  0      -1894032.766       6134647.951      -2710317.167
10 0 59224   8220.000000  0      -1852585.755       6315516.525      -2290756.819
10 0 59224   8280.000000  0      -1801853.676       6469318.867      -1861454.948
10 0 59224   8340.000000  0      -1742288.548       6595318.040      -1424234.601
10 0 59224   8400.000000  0      -1674386.101       6692899.612       -980953.982
10 0 59224   8460.000000  0      -1598682.637       6761574.960       -533498.346
10 0 59224   8520.000000  0      -1515751.619       6800983.934        -83771.727
10 0 59224   8580.000000  0      -1426200.073       6810896.975        366311.507
10 0 59224   8640.000000  0      -1330664.843       6791216.476        814835.273
10 0 59224   8700.000000  0      -1229808.678       6741977.369       1259890.352
10 0 59224   8760.000000  0      -1124316.179       6663347.037       1699582.862
10 0 59224   8820.000000  0      -1014889.640       6555624.580       2132042.588
10 0 59224   8880.000000  0       -902244.842       6419239.486       2555431.148
10 0 59224   8940.000000  0       -787106.821       6254749.706       2967950.008
10 0 59224   9000.000000  0       -670205.599       6062839.074       3367848.310
10 0 59224   9060.000000  0       -552271.928       5844314.150       3753430.352
10 0 59224   9120.000000  0       -434033.150       5600100.657       4123062.904
10 0 59224   9180.000000  0       -316209.050       5331239.148       4475182.409
10 0 59224   9240.000000  0       -199507.717       5038879.938       4808301.618
10 0 59224   9300.000000  0        -84621.535       4724277.642       5121015.560
10 0 59224   9360.000000  0         27776.623       4388785.575       5412007.156
10 0 59224   9420.000000  0        137037.051       4033849.748       5680052.687
10 0 59224   9480.000000  0        242536.714       3661002.277       5924026.855
10 0 59224   9540.000000  0        343682.569       3271854.391       6142907.236
10 0 59224   9600.000000  0        439914.664       2868089.247       6335778.229
10 0 59224   9660.000000  0        530709.039       2451454.508       6501834.614
10 0 59224   9720.000000  0        615580.407       2023754.641       6640384.673
10 0 59224   9780.000000  0        694084.587       1586842.965       6750852.811
10 0 59224   9840.000000  0        765820.691       1142613.554       6832781.647
10 0 59224   9900.000000  0        830433.054        692993.059       6885833.647
10 0 59224   9960.000000  0        887612.918        239932.454       6909792.318
10 0 59224  10020.000000  0        937099.843       -214601.332       6904563.038
10 0 59224  10080.000000  0        978682.832       -668633.937       6870173.368
10 0 59224  10140.000000  0       1012201.213      -1120192.088       6806772.811
10 0 59224  10200.000000  0       1037545.228      -1567312.048       6714632.149
10 0 59224  10260.000000  0       1054656.325      -2008048.085       6594142.350
10 0 59224  10320.000000  0       1063527.221      -2440480.879       6445812.983
10 0 59224  10380.000000  0       1064201.662      -2862725.889       6270270.174
10 0 59224  10440.000000  0       1056773.832      -3272941.559       6068253.993
10 0 59224  10500.000000  0       1041387.556      -3669337.249       5840615.448
10 0 59224  10560.000000  0       1018235.286      -4050181.028       5588313.085
10 0 59224  10620.000000  0        987556.786      -4413807.253       5312409.161
10 0 59224  10680.000000  0        949637.556      -4758623.903       5014065.431
10 0 59224  10740.000000  0        904807.035      -5083119.712       4694538.521
10 0 59224  10800.000000  0        853436.527      -5385871.031       4355174.827
10 0 59224  10860.000000  0        795936.887      -5665548.299       3997404.978
10 0 59224  10920.000000  0        732755.984      -5920922.107       3622737.919
10 0 59224  10980.000000  0        664375.976      -6150868.843       3232754.644
10 0 59224  11040.000000  0        591310.358      -6354375.876       2829101.580
10 0 59224  11100.000000  0        514100.785      -6530546.249       2413483.662
10 0 59224  11160.000000  0        433313.766      -6678602.835       1987657.141
10 0 59224  11220.000000  0        349537.260      -6797892.001       1553422.181
10 0 59224  11280.000000  0        263377.100      -6887886.805       1112615.206
10 0 59224  11340.000000  0        175453.263      -6948189.573        667100.927
10 0 59224  11400.000000  0         86396.068      -6978533.762        218764.242
10 0 59224  11460.000000  0         -3157.657      -6978785.180       -230497.956
10 0 59224  11520.000000  0        -92568.439      -6948942.563       -678784.988
10 0 59224  11580.000000  0       -181198.042      -6889137.529      -1124200.613
10 0 59224  11640.000000  0       -268413.330      -6799633.880      -1564861.176
10 0 59224  11700.000000  0       -353590.092      -6680826.361      -1998903.685
10 0 59224  11760.000000  0       -436116.820      -6533238.792      -2424493.820
10 0 59224  11820.000000  0       -515398.410      -6357521.588      -2839833.803
10 0 59224  11880.000000  0       -590859.775      -6154448.692      -3243170.074
10 0 59224  11940.000000  0       -661949.331      -5924913.925      -3632800.770
10 0 59224  12000.000000  0       -728142.338      -5669926.747      -4007082.928
10 0 59224  12060.000000  0       -788944.070      -5390607.511      -4364439.338
10 0 59224  12120.000000  0       -843892.811      -5088182.285      -4703365.066
10 0 59224  12180.000000  0       -892562.666      -4763977.237      -5022433.665
10 0 59224  12240.000000  0       -934566.155      -4419412.591      -5320303.014
10 0 59224  12300.000000  0       -969556.589      -4055996.207      -5595720.787
10 0 59224  12360.000000  0       -997230.200      -3675316.809      -5847529.506
10 0 59224  12420.000000  0      -1017328.038      -3279036.918      -6074671.194
10 0 59224  12480.000000  0      -1029637.625      -2868885.469      -6276191.610
10 0 59224  12540.000000  0      -1033994.344      -2446650.193      -6451244.004
10 0 59224  12600.000000  0      -1030282.572      -2014169.818      -6599092.435
10 0 59224  12660.000000  0      -1018436.558      -1573326.105      -6719114.662
10 0 59224  12720.000000  0       -998441.038      -1126035.737      -6810804.600
10 0 59224  12780.000000  0       -970331.585       -674242.068      -6873774.356
10 0 59224  12840.000000  0       -934194.653       -219906.747      -6907755.765
10 0 59224  12900.000000  0       -890167.331        234998.641      -6912601.407
10 0 59224  12960.000000  0       -838436.871        688500.909      -6888285.285
10 0 59224  13020.000000  0       -779239.917       1138633.747      -6834903.072
10 0 59224  13080.000000  0       -712861.485       1583446.114      -6752671.767
10 0 59224  13140.000000  0       -639633.704       2021010.530      -6641929.008
10 0 59224  13200.000000  0       -559934.253       2449431.380      -6503131.944
10 0 59224  13260.000000  0       -474184.533       2866853.114      -6336855.618
10 0 59224  13320.000000  0       -382847.586       3271468.354      -6143790.900
10 0 59224  13380.000000  0       -286425.754       3661525.842      -5924741.862
10 0 59224  13440.000000  0       -185458.097       4035338.074      -5680622.679
10 0 59224  13500.000000  0        -80517.614       4391288.749      -5412454.186
10 0 59224  13560.000000  0         27791.769       4727840.033      -5121359.922
10 0 59224  13620.000000  0        138838.405       5043539.496      -4808561.694
10 0 59224  13680.000000  0        251966.340       5337026.729      -4475374.684
10 0 59224  13740.000000  0        366498.900       5607039.567      -4123202.109
10 0 59224  13800.000000  0        481742.444       5852419.889      -3753529.444
10 0 59224  13860.000000  0        596990.232       6072118.959      -3367918.283
10 0 59224  13920.000000  0        711526.434       6265202.331      -2967999.811
10 0 59224  13980.000000  0        824630.227       6430854.243      -2555467.894
10 0 59224  14040.000000  0        935579.969       6568381.455      -2132071.838
10 0 59224  14100.000000  0       1043657.420       6677216.517      -1699608.826
10 0 59224  14160.000000  0       1148151.968       6756920.421      -1259916.110
10 0 59224  14220.000000  0       1248364.875       6807184.654       -814862.973
10 0 59224  14280.000000  0       1343613.495       6827832.572       -366342.482
10 0 59224  14340.000000  0       1433235.408       6818820.099         83736.874
99
